{"type": "FeatureCollection", "features": [ {"type": "Feature", "properties": {"norad_id": 41785, "name": "ALSAT 1B", "group": "resource", "lat": 15.518474203116044, "lon": 3.2490637399003863, "alt_km": 652.2629517123796, "timestamp": "2025-12-19T22:41:52.036556+00:00", "meta": {"OBJECT_NAME": "ALSAT 1B", "OBJECT_ID": "2016-059C", "EPOCH": "2025-12-19T19:21:51.138432", "MEAN_MOTION": 14.72082441, "ECCENTRICITY": 0.0010821, "INCLINATION": 97.7807, "RA_OF_ASC_NODE": 5.292, "ARG_OF_PERICENTER": 83.451, "MEAN_ANOMALY": 276.793, "EPHEMERIS_TYPE": 0, "CLASSIFICATION_TYPE": "U", "NORAD_CAT_ID": 41785, "ELEMENT_SET_NO": 999, "REV_AT_EPOCH": 49418, "BSTAR": 7.2883e-05, "MEAN_MOTION_DOT": 4.11e-06, "MEAN_MOTION_DDOT": 0}, "tle": {"line1": "1 41785U 16059C   25353.80684188  .00000411  00000+0  72883-4 0  9994", "line2": "2 41785  97.7807   5.2920 0010821  83.4510 276.7930 14.72082441494189"}}, "geometry": {"type": "Point", "coordinates": [3.2490637399003863, 15.518474203116044]}}, {"type": "Feature", "properties": {"norad_id": 41787, "name": "PATHFINDER 1", "group": "resource", "lat": -28.746860358228954, "lon": 0.7048318171505279, "alt_km": 674.733942896014, "timestamp": "2025-12-19T22:41:52.036566+00:00", "meta": {"OBJECT_NAME": "PATHFINDER 1", "OBJECT_ID": "2016-059E", "EPOCH": "2025-12-19T11:22:24.247200", "MEAN_MOTION": 14.67332294, "ECCENTRICITY": 0.0029872, "INCLINATION": 97.8136, "RA_OF_ASC_NODE": 355.935, "ARG_OF_PERICENTER": 60.7129, "MEAN_ANOMALY": 299.7056, "EPHEMERIS_TYPE": 0, "CLASSIFICATION_TYPE": "U", "NORAD_CAT_ID": 41787, "ELEMENT_SET_NO": 999, "REV_AT_EPOCH": 49335, "BSTAR": 0.00010834, "MEAN_MOTION_DOT": 5.69e-06, "MEAN_MOTION_DDOT": 0}, "tle": {"line1": "1 41787U 16059E   25353.47389175  .00000569  00000+0  10834-3 0  9998", "line2": "2 41787  97.8136 355.9350 0029872  60.7129 299.7056 14.67332294493359"}}, "geometry": {"type": "Point", "coordinates": [0.7048318171505279, -28.746860358228954]}}, {"type": "Feature", "properties": {"norad_id": 41790, "name": "SCATSAT 1", "group": "resource", "lat": -80.69190230760817, "lon": 169.79480020872919, "alt_km": 677.1772933854791, "timestamp": "2025-12-19T22:41:52.036576+00:00", "meta": {"OBJECT_NAME": "SCATSAT 1", "OBJECT_ID": "2016-059H", "EPOCH": "2025-12-19T15:00:35.016192", "MEAN_MOTION": 14.7895767, "ECCENTRICITY": 0.0056438, "INCLINATION": 98.1455, "RA_OF_ASC_NODE": 50.3814, "ARG_OF_PERICENTER": 106.2754, "MEAN_ANOMALY": 254.4674, "EPHEMERIS_TYPE": 0, "CLASSIFICATION_TYPE": "U", "NORAD_CAT_ID": 41790, "ELEMENT_SET_NO": 999, "REV_AT_EPOCH": 7504, "BSTAR": 0.00014584, "MEAN_MOTION_DOT": 1.049e-05, "MEAN_MOTION_DDOT": 0}, "tle": {"line1": "1 41790U 16059H   25353.62540528  .00001049  00000+0  14584-3 0  9990", "line2": "2 41790  98.1455  50.3814 0056438 106.2754 254.4674 14.78957670 75049"}}, "geometry": {"type": "Point", "coordinates": [169.79480020872919, -80.69190230760817]}}, {"type": "Feature", "properties": {"norad_id": 41875, "name": "GOKTURK 1A", "group": "resource", "lat": -67.5135609856175, "lon": -93.5469212547419, "alt_km": 692.2039981662128, "timestamp": "2025-12-19T22:41:52.036586+00:00", "meta": {"OBJECT_NAME": "GOKTURK 1A", "OBJECT_ID": "2016-073A", "EPOCH": "2025-12-19T18:05:15.466272", "MEAN_MOTION": 14.62787444, "ECCENTRICITY": 0.0001255, "INCLINATION": 98.1436, "RA_OF_ASC_NODE": 246.0251, "ARG_OF_PERICENTER": 81.7262, "MEAN_ANOMALY": 278.4082, "EPHEMERIS_TYPE": 0, "CLASSIFICATION_TYPE": "U", "NORAD_CAT_ID": 41875, "ELEMENT_SET_NO": 999, "REV_AT_EPOCH": 48259, "BSTAR": 8.9933e-05, "MEAN_MOTION_DOT": 4.12e-06, "MEAN_MOTION_DDOT": 0}, "tle": {"line1": "1 41875U 16073A   25353.75365123  .00000412  00000+0  89933-4 0  9994", "line2": "2 41875  98.1436 246.0251 0001255  81.7262 278.4082 14.62787444482593"}}, "geometry": {"type": "Point", "coordinates": [-93.5469212547419, -67.5135609856175]}}, {"type": "Feature", "properties": {"norad_id": 41877, "name": "RESOURCESAT-2A", "group": "resource", "lat": -6.57245165362308, "lon": 64.77986270639437, "alt_km": 824.3159836667173, "timestamp": "2025-12-19T22:41:52.036597+00:00", "meta": {"OBJECT_NAME": "RESOURCESAT-2A", "OBJECT_ID": "2016-074A", "EPOCH": "2025-12-19T17:39:41.180256", "MEAN_MOTION": 14.21603248, "ECCENTRICITY": 0.0001366, "INCLINATION": 98.7755, "RA_OF_ASC_NODE": 63.5515, "ARG_OF_PERICENTER": 222.7175, "MEAN_ANOMALY": 137.3896, "EPHEMERIS_TYPE": 0, "CLASSIFICATION_TYPE": "U", "NORAD_CAT_ID": 41877, "ELEMENT_SET_NO": 999, "REV_AT_EPOCH": 46880, "BSTAR": 0.00014368, "MEAN_MOTION_DOT": 2.71e-06, "MEAN_MOTION_DDOT": 0}, "tle": {"line1": "1 41877U 16074A   25353.73589329  .00000271  00000+0  14368-3 0  9993", "line2": "2 41877  98.7755  63.5515 0001366 222.7175 137.3896 14.21603248468801"}}, "geometry": {"type": "Point", "coordinates": [64.77986270639437, -6.57245165362308]}}, {"type": "Feature", "properties": {"norad_id": 41948, "name": "CARTOSAT-2D", "group": "resource", "lat": 9.543177835272306, "lon": 50.075307299438315, "alt_km": 511.9581191555453, "timestamp": "2025-12-19T22:41:52.036612+00:00", "meta": {"OBJECT_NAME": "CARTOSAT-2D", "OBJECT_ID": "2017-008A", "EPOCH": "2025-12-19T17:54:48.758688", "MEAN_MOTION": 15.19325868, "ECCENTRICITY": 0.0005253, "INCLINATION": 97.4387, "RA_OF_ASC_NODE": 51.1376, "ARG_OF_PERICENTER": 140.4688, "MEAN_ANOMALY": 219.6931, "EPHEMERIS_TYPE": 0, "CLASSIFICATION_TYPE": "U", "NORAD_CAT_ID": 41948, "ELEMENT_SET_NO": 999, "REV_AT_EPOCH": 49033, "BSTAR": 0.00020335, "MEAN_MOTION_DOT": 4.228e-05, "MEAN_MOTION_DDOT": 0}, "tle": {"line1": "1 41948U 17008A   25353.74639767  .00004228  00000+0  20335-3 0  9990", "line2": "2 41948  97.4387  51.1376 0005253 140.4688 219.6931 15.19325868490333"}}, "geometry": {"type": "Point", "coordinates": [50.075307299438315, 9.543177835272306]}}, {"type": "Feature", "properties": {"norad_id": 42063, "name": "SENTINEL-2B", "group": "resource", "lat": -20.533847843348607, "lon": -116.94742302755135, "alt_km": 794.4782581600639, "timestamp": "2025-12-19T22:41:52.036623+00:00", "meta": {"OBJECT_NAME": "SENTINEL-2B", "OBJECT_ID": "2017-013A", "EPOCH": "2025-12-19T18:24:22.744224", "MEAN_MOTION": 14.30813264, "ECCENTRICITY": 0.0001181, "INCLINATION": 98.5715, "RA_OF_ASC_NODE": 66.1148, "ARG_OF_PERICENTER": 91.5922, "MEAN_ANOMALY": 268.5397, "EPHEMERIS_TYPE": 0, "CLASSIFICATION_TYPE": "U", "NORAD_CAT_ID": 42063, "ELEMENT_SET_NO": 999, "REV_AT_EPOCH": 45898, "BSTAR": 6.0552e-05, "MEAN_MOTION_DOT": 1.15e-06, "MEAN_MOTION_DDOT": 0}, "tle": {"line1": "1 42063U 17013A   25353.76692991  .00000115  00000+0  60552-4 0  9992", "line2": "2 42063  98.5715  66.1148 0001181  91.5922 268.5397 14.30813264458983"}}, "geometry": {"type": "Point", "coordinates": [-116.94742302755135, -20.533847843348607]}}, {"type": "Feature", "properties": {"norad_id": 42767, "name": "CARTOSAT-2E", "group": "resource", "lat": -78.28369997203268, "lon": 90.59582700860255, "alt_km": 514.9898488145518, "timestamp": "2025-12-19T22:41:52.036633+00:00", "meta": {"OBJECT_NAME": "CARTOSAT-2E", "OBJECT_ID": "2017-036C", "EPOCH": "2025-12-19T18:18:41.590368", "MEAN_MOTION": 15.19266198, "ECCENTRICITY": 0.0002437, "INCLINATION": 97.4555, "RA_OF_ASC_NODE": 51.2585, "ARG_OF_PERICENTER": 204.1094, "MEAN_ANOMALY": 156.0027, "EPHEMERIS_TYPE": 0, "CLASSIFICATION_TYPE": "U", "NORAD_CAT_ID": 42767, "ELEMENT_SET_NO": 999, "REV_AT_EPOCH": 47090, "BSTAR": 0.00022354, "MEAN_MOTION_DOT": 4.646e-05, "MEAN_MOTION_DDOT": 0}, "tle": {"line1": "1 42767U 17036C   25353.76298137  .00004646  00000+0  22354-3 0  9992", "line2": "2 42767  97.4555  51.2585 0002437 204.1094 156.0027 15.19266198470904"}}, "geometry": {"type": "Point", "coordinates": [90.59582700860255, -78.28369997203268]}}, {"type": "Feature", "properties": {"norad_id": 42920, "name": "FORMOSAT-5", "group": "resource", "lat": 2.4493820659071113, "lon": 67.76499228620813, "alt_km": 725.2358847448195, "timestamp": "2025-12-19T22:41:52.036643+00:00", "meta": {"OBJECT_NAME": "FORMOSAT-5", "OBJECT_ID": "2017-049A", "EPOCH": "2025-12-19T17:43:14.144160", "MEAN_MOTION": 14.50764408, "ECCENTRICITY": 0.0009845, "INCLINATION": 98.2446, "RA_OF_ASC_NODE": 67.9172, "ARG_OF_PERICENTER": 277.788, "MEAN_ANOMALY": 82.2197, "EPHEMERIS_TYPE": 0, "CLASSIFICATION_TYPE": "U", "NORAD_CAT_ID": 42920, "ELEMENT_SET_NO": 999, "REV_AT_EPOCH": 44065, "BSTAR": 4.7807e-05, "MEAN_MOTION_DOT": 1.44e-06, "MEAN_MOTION_DDOT": 0}, "tle": {"line1": "1 42920U 17049A   25353.73835815  .00000144  00000+0  47807-4 0  9994", "line2": "2 42920  98.2446  67.9172 0009845 277.7880  82.2197 14.50764408440656"}}, "geometry": {"type": "Point", "coordinates": [67.76499228620813, 2.4493820659071113]}}, {"type": "Feature", "properties": {"norad_id": 42969, "name": "SENTINEL-5P", "group": "resource", "lat": -53.48708654429537, "lon": -55.48478275205526, "alt_km": 834.5266078328868, "timestamp": "2025-12-19T22:41:52.036654+00:00", "meta": {"OBJECT_NAME": "SENTINEL-5P", "OBJECT_ID": "2017-064A", "EPOCH": "2025-12-19T14:29:43.433088", "MEAN_MOTION": 14.1951907, "ECCENTRICITY": 0.000102, "INCLINATION": 98.7794, "RA_OF_ASC_NODE": 292.1275, "ARG_OF_PERICENTER": 90.2073, "MEAN_ANOMALY": 269.922, "EPHEMERIS_TYPE": 0, "CLASSIFICATION_TYPE": "U", "NORAD_CAT_ID": 42969, "ELEMENT_SET_NO": 999, "REV_AT_EPOCH": 42408, "BSTAR": 3.7143e-05, "MEAN_MOTION_DOT": 3.4e-07, "MEAN_MOTION_DDOT": 0}, "tle": {"line1": "1 42969U 17064A   25353.60397492  .00000034  00000+0  37143-4 0  9994", "line2": "2 42969  98.7794 292.1275 0001020  90.2073 269.9220 14.19519070424083"}}, "geometry": {"type": "Point", "coordinates": [-55.48478275205526, -53.48708654429537]}}]}